{
  "type": "FeatureCollection",
  "features": [
    {
      "type": "Feature",
      "properties": {
        "norad_id": 32275,
        "name": "COSMOS 2433 (720)",
        "group": "glo-ops",
        "lat": -2.994650527867141,
        "lon": 143.71851625768372,
        "alt_km": 19125.86555485869,
        "timestamp": "2025-12-07T16:44:04.172272+00:00",
        "meta_object_name": "COSMOS 2433 (720)",
        "meta_object_id": "2007-052A",
        "meta_epoch": "2025-12-05T02:41:16.127808",
        "meta_mean_motion": 2.1310391,
        "meta_eccentricity": 0.00054971,
        "meta_inclination": 65.6874,
        "meta_ra_of_asc_node": 322.462,
        "meta_arg_of_pericenter": 253.0747,
        "meta_mean_anomaly": 106.8638,
        "meta_ephemeris_type": 0,
        "meta_classification_type": "U",
        "meta_norad_cat_id": 32275,
        "meta_element_set_no": 999,
        "meta_rev_at_epoch": 14092,
        "meta_bstar": 0,
        "meta_mean_motion_dot": -4.7e-07,
        "meta_mean_motion_ddot": 0,
        "tle_line1": "1 32275U 07052A   25339.11199222 -.00000047  00000+0  00000+0 0  9992",
        "tle_line2": "2 32275  65.6874 322.4620 0005497 253.0747 106.8638  2.13103910140927"
      },
      "geometry": {
        "type": "Point",
        "coordinates": [
          143.71851625768372,
          -2.994650527867141
        ]
      }
    },
    {
      "type": "Feature",
      "properties": {
        "norad_id": 32276,
        "name": "COSMOS 2432 (719)",
        "group": "glo-ops",
        "lat": 46.04392309449891,
        "lon": 114.55067667194969,
        "alt_km": 19153.232588761024,
        "timestamp": "2025-12-07T16:44:04.172295+00:00",
        "meta_object_name": "COSMOS 2432 (719)",
        "meta_object_id": "2007-052B",
        "meta_epoch": "2025-12-04T17:08:15.006912",
        "meta_mean_motion": 2.13103047,
        "meta_eccentricity": 0.00112577,
        "meta_inclination": 65.7035,
        "meta_ra_of_asc_node": 322.5994,
        "meta_arg_of_pericenter": 311.684,
        "meta_mean_anomaly": 47.4656,
        "meta_ephemeris_type": 0,
        "meta_classification_type": "U",
        "meta_norad_cat_id": 32276,
        "meta_element_set_no": 999,
        "meta_rev_at_epoch": 14093,
        "meta_bstar": 0,
        "meta_mean_motion_dot": -4.6e-07,
        "meta_mean_motion_ddot": 0,
        "tle_line1": "1 32276U 07052B   25338.71406258 -.00000046  00000+0  00000+0 0  9997",
        "tle_line2": "2 32276  65.7035 322.5994 0011257 311.6840  47.4656  2.13103047140931"
      },
      "geometry": {
        "type": "Point",
        "coordinates": [
          114.55067667194969,
          46.04392309449891
        ]
      }
    },
    {
      "type": "Feature",
      "properties": {
        "norad_id": 32393,
        "name": "COSMOS 2434 (721)",
        "group": "glo-ops",
        "lat": 59.95328078527873,
        "lon": -105.3097223828923,
        "alt_km": 19112.06817264161,
        "timestamp": "2025-12-07T16:44:04.172311+00:00",
        "meta_object_name": "COSMOS 2434 (721)",
        "meta_object_id": "2007-065A",
        "meta_epoch": "2025-12-05T10:54:52.087392",
        "meta_mean_motion": 2.1310119,
        "meta_eccentricity": 0.00044378,
        "meta_inclination": 64.3147,
        "meta_ra_of_asc_node": 198.4493,
        "meta_arg_of_pericenter": 70.9033,
        "meta_mean_anomaly": 82.6626,
        "meta_ephemeris_type": 0,
        "meta_classification_type": "U",
        "meta_norad_cat_id": 32393,
        "meta_element_set_no": 999,
        "meta_rev_at_epoch": 13964,
        "meta_bstar": 0,
        "meta_mean_motion_dot": 8.7e-07,
        "meta_mean_motion_ddot": 0,
        "tle_line1": "1 32393U 07065A   25339.45476953  .00000087  00000+0  00000+0 0  9996",
        "tle_line2": "2 32393  64.3147 198.4493 0004437  70.9033  82.6626  2.13101190139646"
      },
      "geometry": {
        "type": "Point",
        "coordinates": [
          -105.3097223828923,
          59.95328078527873
        ]
      }
    },
    {
      "type": "Feature",
      "properties": {
        "norad_id": 32395,
        "name": "COSMOS 2436 (723)",
        "group": "glo-ops",
        "lat": -24.10063780093154,
        "lon": 30.876300949615185,
        "alt_km": 19176.611037077455,
        "timestamp": "2025-12-07T16:44:04.172324+00:00",
        "meta_object_name": "COSMOS 2436 (723)",
        "meta_object_id": "2007-065C",
        "meta_epoch": "2025-12-06T17:19:11.728128",
        "meta_mean_motion": 2.131,
        "meta_eccentricity": 0.00177361,
        "meta_inclination": 64.3235,
        "meta_ra_of_asc_node": 198.4768,
        "meta_arg_of_pericenter": 9.0912,
        "meta_mean_anomaly": 169.4932,
        "meta_ephemeris_type": 0,
        "meta_classification_type": "U",
        "meta_norad_cat_id": 32395,
        "meta_element_set_no": 999,
        "meta_rev_at_epoch": 13962,
        "meta_bstar": 0,
        "meta_mean_motion_dot": 6.8e-07,
        "meta_mean_motion_ddot": 0,
        "tle_line1": "1 32395U 07065C   25340.72166352  .00000068  00000+0  00000+0 0  9998",
        "tle_line2": "2 32395  64.3235 198.4768 0017736   9.0912 169.4932  2.13100000139627"
      },
      "geometry": {
        "type": "Point",
        "coordinates": [
          30.876300949615185,
          -24.10063780093154
        ]
      }
    },
    {
      "type": "Feature",
      "properties": {
        "norad_id": 36111,
        "name": "COSMOS 2456 (730)",
        "group": "glo-ops",
        "lat": -44.725436734006216,
        "lon": -74.8657213038795,
        "alt_km": 19132.140038767488,
        "timestamp": "2025-12-07T16:44:04.172337+00:00",
        "meta_object_name": "COSMOS 2456 (730)",
        "meta_object_id": "2009-070A",
        "meta_epoch": "2025-12-06T21:12:24.583968",
        "meta_mean_motion": 2.13103425,
        "meta_eccentricity": 0.00030121,
        "meta_inclination": 64.8968,
        "meta_ra_of_asc_node": 77.5382,
        "meta_arg_of_pericenter": 297.7159,
        "meta_mean_anomaly": 29.056,
        "meta_ephemeris_type": 0,
        "meta_classification_type": "U",
        "meta_norad_cat_id": 36111,
        "meta_element_set_no": 999,
        "meta_rev_at_epoch": 12432,
        "meta_bstar": 0,
        "meta_mean_motion_dot": -1.7e-07,
        "meta_mean_motion_ddot": 0,
        "tle_line1": "1 36111U 09070A   25340.88361787 -.00000017  00000+0  00000+0 0  9997",
        "tle_line2": "2 36111  64.8968  77.5382 0003012 297.7159  29.0560  2.13103425124328"
      },
      "geometry": {
        "type": "Point",
        "coordinates": [
          -74.8657213038795,
          -44.725436734006216
        ]
      }
    },
    {
      "type": "Feature",
      "properties": {
        "norad_id": 36112,
        "name": "COSMOS 2457 (733)",
        "group": "glo-ops",
        "lat": 0.12212720902751173,
        "lon": 77.42249495264791,
        "alt_km": 19141.83538767268,
        "timestamp": "2025-12-07T16:44:04.172349+00:00",
        "meta_object_name": "COSMOS 2457 (733)",
        "meta_object_id": "2009-070B",
        "meta_epoch": "2025-12-06T07:10:29.262720",
        "meta_mean_motion": 2.13100792,
        "meta_eccentricity": 0.00047992,
        "meta_inclination": 64.8819,
        "meta_ra_of_asc_node": 77.406,
        "meta_arg_of_pericenter": 157.5732,
        "meta_mean_anomaly": 209.8629,
        "meta_ephemeris_type": 0,
        "meta_classification_type": "U",
        "meta_norad_cat_id": 36112,
        "meta_element_set_no": 999,
        "meta_rev_at_epoch": 12432,
        "meta_bstar": 0,
        "meta_mean_motion_dot": -1.9e-07,
        "meta_mean_motion_ddot": 0,
        "tle_line1": "1 36112U 09070B   25340.29894980 -.00000019  00000+0  00000+0 0  9991",
        "tle_line2": "2 36112  64.8819  77.4060 0004799 157.5732 209.8629  2.13100792124327"
      },
      "geometry": {
        "type": "Point",
        "coordinates": [
          77.42249495264791,
          0.12212720902751173
        ]
      }
    },
    {
      "type": "Feature",
      "properties": {
        "norad_id": 36402,
        "name": "COSMOS 2460 (732)",
        "group": "glo-ops",
        "lat": -0.3554033584866852,
        "lon": -39.23043512623028,
        "alt_km": 19129.823565846076,
        "timestamp": "2025-12-07T16:44:04.172361+00:00",
        "meta_object_name": "COSMOS 2460 (732)",
        "meta_object_id": "2010-007C",
        "meta_epoch": "2025-12-05T09:49:39.891072",
        "meta_mean_motion": 2.13106027,
        "meta_eccentricity": 0.00027397,
        "meta_inclination": 65.5337,
        "meta_ra_of_asc_node": 321.021,
        "meta_arg_of_pericenter": 272.5603,
        "meta_mean_anomaly": 131.8824,
        "meta_ephemeris_type": 0,
        "meta_classification_type": "U",
        "meta_norad_cat_id": 36402,
        "meta_element_set_no": 999,
        "meta_rev_at_epoch": 12260,
        "meta_bstar": 0,
        "meta_mean_motion_dot": -4.8e-07,
        "meta_mean_motion_ddot": 0,
        "tle_line1": "1 36402U 10007C   25339.40948948 -.00000048  00000+0  00000+0 0  9992",
        "tle_line2": "2 36402  65.5337 321.0210 0002739 272.5603 131.8824  2.13106027122601"
      },
      "geometry": {
        "type": "Point",
        "coordinates": [
          -39.23043512623028,
          -0.3554033584866852
        ]
      }
    }
  ]
}